NORAD_CAT_ID,OBJECT_NAME,OBJECT_TYPE,EPOCH,MEAN_MOTION,ECCENTRICITY,INCLINATION,RA_OF_ASC_NODE,ARG_OF_PERICENTER,MEAN_ANOMALY,BSTAR,MEAN_MOTION_DOT,MEAN_MOTION_DDOT,TLE_LINE0,TLE_LINE1,TLE_LINE2,SEMIMAJOR_AXIS,PERIOD,APOGEE,PERIGEE,DECAYED
53774.0,STARLINK-4719,PAYLOAD,2023-11-17 13:27:41,15.08836775,0.0001409,53.2166,108.9541,101.1371,258.978,-4.9319e-06,-3.66e-06,0.0,0 STARLINK-4719,1 53774U 22111B   23321.56089988 -.00000366  00000-0 -49319-5 0  9995,2 53774  53.2166 108.9541 0001409 101.1371 258.9780 15.08836775 66424,6917.89,95.438,540.73,538.781,0.0
53774.0,STARLINK-4719,PAYLOAD,2023-11-17 16:38:28,15.08837451,0.0001377,53.2163,108.3606,94.4941,265.6208,-4.5534e-06,-3.6e-06,0.0,0 STARLINK-4719,1 53774U 22111B   23321.69337990 -.00000360  00000-0 -45534-5 0  9997,2 53774  53.2163 108.3606 0001377  94.4941 265.6208 15.08837451 66442,6917.888,95.438,540.706,538.801,0.0
53774.0,STARLINK-4719,PAYLOAD,2023-11-18 10:07:42,15.08835239,0.0001461,53.2168,105.0891,94.5197,265.5962,1.7442e-05,-1e-07,0.0,0 STARLINK-4719,1 53774U 22111B   23322.42202222 -.00000010  00000-0  17442-4 0  9995,2 53774  53.2168 105.0891 0001461  94.5197 265.5962 15.08835239 65598,6917.895,95.438,540.771,538.749,0.0
53774.0,STARLINK-4719,PAYLOAD,2023-11-18 16:29:15,15.08837723,0.0001426,53.2171,103.9001,93.5694,266.5462,3.843e-05,3.24e-06,0.0,0 STARLINK-4719,1 53774U 22111B   23322.68698052  .00000324  00000-0  38430-4 0  9990,2 53774  53.2171 103.9001 0001426  93.5694 266.5462 15.08837723 66591,6917.887,95.438,540.739,538.766,0.0
53774.0,STARLINK-4719,PAYLOAD,2023-11-19 14:44:39,15.0883809,0.0001366,53.2182,99.7377,92.7051,267.4097,6.1663e-05,6.94e-06,0.0,0 STARLINK-4719,1 53774U 22111B   23323.61434170  .00000694  00000-0  61663-4 0  9997,2 53774  53.2182  99.7377 0001366  92.7051 267.4097 15.08838090 66730,6917.886,95.438,540.696,538.806,0.0
53774.0,STARLINK-4719,PAYLOAD,2023-11-19 16:20:02,15.08839734,0.0001349,53.2187,99.441,93.047,267.0677,7.1063e-05,8.43e-06,0.0,0 STARLINK-4719,1 53774U 22111B   23323.68058052  .00000843  00000-0  71063-4 0  9996,2 53774  53.2187  99.4410 0001349  93.0470 267.0677 15.08839734 65780,6917.881,95.438,540.679,538.813,0.0
53774.0,STARLINK-4719,PAYLOAD,2023-11-20 14:35:26,15.0884138,0.000138,53.2187,95.2786,94.988,265.127,6.1574e-05,6.92e-06,0.0,0 STARLINK-4719,1 53774U 22111B   23324.60794097  .00000692  00000-0  61574-4 0  9993,2 53774  53.2187  95.2786 0001380  94.9880 265.1270 15.08841380 66880,6917.876,95.437,540.696,538.787,0.0
53774.0,STARLINK-4719,PAYLOAD,2023-11-20 16:10:49,15.08843668,0.0001394,53.2189,94.9816,96.2252,263.8899,8.0575e-05,9.95e-06,0.0,0 STARLINK-4719,1 53774U 22111B   23324.67417885  .00000995  00000-0  80575-4 0  9995,2 53774  53.2189  94.9816 0001394  96.2252 263.8899 15.08843668 66899,6917.869,95.437,540.699,538.77,0.0
53774.0,STARLINK-4719,PAYLOAD,2023-11-21 01:43:07,15.08841969,0.0001281,53.219,93.1975,90.916,269.1979,6.3627e-05,7.25e-06,0.0,0 STARLINK-4719,1 53774U 22111B   23325.07161975  .00000725  00000-0  63627-4 0  9996,2 53774  53.2190  93.1975 0001281  90.9160 269.1979 15.08841969 65992,6917.874,95.437,540.626,538.853,0.0
53774.0,STARLINK-4719,PAYLOAD,2023-11-21 12:50:50,15.0883722,0.0001443,53.2198,91.1163,95.0128,265.1029,-1.3438e-06,-3.09e-06,0.0,0 STARLINK-4719,1 53774U 22111B   23325.53530593 -.00000309  00000-0 -13438-5 0  9999,2 53774  53.2198  91.1163 0001443  95.0128 265.1029 15.08837220 67020,6917.889,95.438,540.752,538.756,0.0
53774.0,STARLINK-4719,PAYLOAD,2023-11-21 16:01:36,15.08840086,0.0001541,53.2191,90.5206,85.9593,274.1575,8.1692e-06,-1.58e-06,0.0,0 STARLINK-4719,1 53774U 22111B   23325.66778430 -.00000158  00000-0  81692-5 0  9995,2 53774  53.2191  90.5206 0001541  85.9593 274.1575 15.08840086 67049,6917.88,95.438,540.811,538.679,0.0
53774.0,STARLINK-4719,PAYLOAD,2023-11-22 14:16:59,15.08852101,0.0001463,53.2185,86.3569,83.4887,276.6272,9.0873e-05,1.159e-05,0.0,0 STARLINK-4719,1 53774U 22111B   23326.59513197  .00001159  00000-0  90873-4 0  9996,2 53774  53.2185  86.3569 0001463  83.4887 276.6272 15.08852101 67186,6917.843,95.437,540.72,538.696,0.0
53774.0,STARLINK-4719,PAYLOAD,2023-11-22 15:52:21,15.08863051,0.0001486,53.2192,86.061,74.121,285.9946,0.00016368,2.32e-05,0.0,0 STARLINK-4719,1 53774U 22111B   23326.66136379  .00002320  00000-0  16368-3 0  9994,2 53774  53.2192  86.0610 0001486  74.1210 285.9946 15.08863051 66232,6917.81,95.436,540.703,538.647,0.0
53774.0,STARLINK-4719,PAYLOAD,2023-11-23 14:07:48,15.08833509,0.0001535,53.219,81.8954,70.7009,289.4149,-4.8371e-05,-1.058e-05,0.0,0 STARLINK-4719,1 53774U 22111B   23327.58875017 -.00001058  00000-0 -48371-4 0  9994,2 53774  53.2190  81.8954 0001535  70.7009 289.4149 15.08833509 67338,6917.9,95.438,540.827,538.703,0.0
53774.0,STARLINK-4719,PAYLOAD,2023-11-23 17:18:34,15.08836212,0.0001454,53.2193,81.3,82.6899,277.4258,-3.4973e-05,-8.44e-06,0.0,0 STARLINK-4719,1 53774U 22111B   23327.72122779 -.00000844  00000-0 -34973-4 0  9995,2 53774  53.2193  81.3000 0001454  82.6899 277.4258 15.08836212 66394,6917.892,95.438,540.763,538.751,0.0
53774.0,STARLINK-4719,PAYLOAD,2023-11-24 13:58:34,15.08844336,0.0001671,53.2193,77.4396,85.9045,274.2138,-0.00011267,-2.081e-05,0.0,0 STARLINK-4719,1 53774U 22111B   23328.58234768 -.00002081  00000-0 -11267-3 0  9997,2 53774  53.2193  77.4396 0001671  85.9045 274.2138 15.08844336 67487,6917.867,95.437,540.888,538.576,0.0
53774.0,STARLINK-4719,PAYLOAD,2023-11-25 13:49:20,15.08855005,0.0001747,53.2202,72.9784,115.9688,244.1485,0.00028207,4.206e-05,0.0,0 STARLINK-4719,1 53774U 22111B   23329.57593338  .00004206  00000-0  28207-3 0  9999,2 53774  53.2202  72.9784 0001747 115.9688 244.1485 15.08855005 67633,6917.835,95.437,540.908,538.491,0.0
53774.0,STARLINK-4719,PAYLOAD,2023-11-25 17:00:06,15.08855867,0.0001601,53.2185,72.379,119.8777,240.2374,0.00030852,4.628e-05,0.0,0 STARLINK-4719,1 53774U 22111B   23329.70841076  .00004628  00000-0  30852-3 0  9996,2 53774  53.2185  72.3790 0001601 119.8777 240.2374 15.08855867 67657,6917.832,95.437,540.804,538.589,0.0
53774.0,STARLINK-4719,PAYLOAD,2023-11-26 12:04:44,15.08858932,0.000183,53.2194,68.8126,119.3598,240.7577,0.00020185,2.927e-05,0.0,0 STARLINK-4719,1 53774U 22111B   23330.50328975  .00002927  00000-0  20185-3 0  9992,2 53774  53.2194  68.8126 0001830 119.3598 240.7577 15.08858932 66813,6917.823,95.436,540.953,538.422,0.0
53774.0,STARLINK-4719,PAYLOAD,2023-11-26 13:40:07,15.08861334,0.0001682,53.2188,68.511,112.4497,247.6673,0.000216,3.153e-05,0.0,0 STARLINK-4719,1 53774U 22111B   23330.56953128  .00003153  00000-0  21600-3 0  9997,2 53774  53.2188  68.5110 0001682 112.4497 247.6673 15.08861334 67783,6917.815,95.436,540.844,538.517,0.0
53774.0,STARLINK-4719,PAYLOAD,2023-11-27 11:55:33,15.0881916,0.000147,53.2189,64.3503,99.193,260.9228,-0.00051355,-8.447e-05,0.0,0 STARLINK-4719,1 53774U 22111B   23331.49691418 -.00008447  00000-0 -51355-3 0  9994,2 53774  53.2189  64.3503 0001470  99.1930 260.9228 15.08819160 66965,6917.944,95.439,540.826,538.792,0.0
53774.0,STARLINK-4719,PAYLOAD,2023-11-28 11:46:18,15.08861318,0.0002158,53.2196,59.8926,130.9851,229.1328,0.00029004,4.333e-05,0.0,0 STARLINK-4719,1 53774U 22111B   23332.49049701  .00004333  00000-0  29004-3 0  9991,2 53774  53.2196  59.8926 0002158 130.9851 229.1328 15.08861318 67119,6917.815,95.436,541.173,538.187,0.0
53774.0,STARLINK-4719,PAYLOAD,2023-11-28 13:21:42,15.0885932,0.0001577,53.2194,59.5945,82.8671,277.25,0.00029702,4.445e-05,0.0,0 STARLINK-4719,1 53774U 22111B   23332.55674092  .00004445  00000-0  29702-3 0  9994,2 53774  53.2194  59.5945 0001577  82.8671 277.2500 15.08859320 68087,6917.821,95.436,540.777,538.595,0.0
53774.0,STARLINK-4719,PAYLOAD,2023-11-29 11:37:07,15.08834452,0.0001519,53.2198,55.4361,83.2242,276.8923,0.00031039,4.655e-05,0.0,0 STARLINK-4719,1 53774U 22111B   23333.48411984  .00004655  00000-0  31039-3 0  9995,2 53774  53.2198  55.4361 0001519  83.2242 276.8923 15.08834452 67265,6917.897,95.438,540.813,538.712,0.0
53774.0,STARLINK-4719,PAYLOAD,2023-11-29 13:12:31,15.08837665,0.0001715,53.2192,55.1356,69.1686,290.949,0.0003491,5.272e-05,0.0,0 STARLINK-4719,1 53774U 22111B   23333.55035938  .00005272  00000-0  34910-3 0  9991,2 53774  53.2192  55.1356 0001715  69.1686 290.9490 15.08837665 68236,6917.888,95.438,540.939,538.566,0.0
53774.0,STARLINK-4719,PAYLOAD,2023-11-30 13:03:17,15.08848285,0.0002228,53.2193,50.6774,57.6684,302.4524,-4.1432e-05,-9.48e-06,0.0,0 STARLINK-4719,1 53774U 22111B   23334.54395259 -.00000948  00000-0 -41432-4 0  9991,2 53774  53.2193  50.6774 0002228  57.6684 302.4524 15.08848285 67428,6917.855,95.437,541.261,538.179,0.0
53774.0,STARLINK-4719,PAYLOAD,2023-12-01 11:18:41,15.08839393,0.0001499,53.2189,46.5174,69.8868,290.2286,3.7122e-05,3.03e-06,0.0,0 STARLINK-4719,1 53774U 22111B   23335.47131896  .00000303  00000-0  37122-4 0  9993,2 53774  53.2189  46.5174 0001499  69.8868 290.2286 15.08839393 67563,6917.882,95.438,540.784,538.71,0.0
53774.0,STARLINK-4719,PAYLOAD,2023-12-02 11:09:28,15.0882576,0.000152,53.2181,42.0545,98.4525,261.664,-0.00031598,-5.311e-05,0.0,0 STARLINK-4719,1 53774U 22111B   23336.46491609 -.00005311  00000-0 -31598-3 0  9990,2 53774  53.2181  42.0545 0001520  98.4525 261.6640 15.08825760 68673,6917.924,95.438,540.84,538.737,0.0
53774.0,STARLINK-4719,PAYLOAD,2023-12-03 11:00:16,15.08842846,0.0001525,53.2189,37.5928,116.3523,243.7626,-0.00088291,-0.00014313,0.0,0 STARLINK-4719,1 53774U 22111B   23337.45852451 -.00014313  00000-0 -88291-3 0  9990,2 53774  53.2189  37.5928 0001525 116.3523 243.7626 15.08842846 67867,6917.872,95.437,540.792,538.682,0.0
53774.0,STARLINK-4719,PAYLOAD,2023-12-03 17:21:50,15.08827334,0.0001454,53.2184,36.4004,91.6534,268.4624,-3.9705e-05,-9.2e-06,0.0,0 STARLINK-4719,1 53774U 22111B   23337.72349572 -.00000920  00000-0 -39705-4 0  9991,2 53774  53.2184  36.4004 0001454  91.6534 268.4624 15.08827334 67905,6917.919,95.438,540.79,538.778,0.0
